CSS (TIANHE)            
1 48274U 21035A   24245.26259506  .00067086  00000+0  72673-3 0  9992
2 48274  41.4702 339.4853 0002447 337.1046  22.9684 15.62607874190996
